{
  "type": "FeatureCollection",
  "features": [
    {
      "type": "Feature",
      "properties": {
        "norad_id": 55973,
        "name": "TIANMU-1 03",
        "group": "weather",
        "lat": 23.680059414621116,
        "lon": 137.68696875067772,
        "alt_km": 442.48055765982554,
        "timestamp": "2025-12-04T13:52:00.091715+00:00",
        "meta_object_name": "TIANMU-1 03",
        "meta_object_id": "2023-039A",
        "meta_epoch": "2025-12-04T07:31:39.873216",
        "meta_mean_motion": 15.40547491,
        "meta_eccentricity": 0.00045626,
        "meta_inclination": 97.5101,
        "meta_ra_of_asc_node": 140.7325,
        "meta_arg_of_pericenter": 85.0581,
        "meta_mean_anomaly": 275.1186,
        "meta_ephemeris_type": 0,
        "meta_classification_type": "U",
        "meta_norad_cat_id": 55973,
        "meta_element_set_no": 999,
        "meta_rev_at_epoch": 15076,
        "meta_bstar": 0.00078271202,
        "meta_mean_motion_dot": 0.00031811,
        "meta_mean_motion_ddot": 0,
        "tle_line1": "1 55973U 23039A   25338.31365594  .00031811  00000+0  78271-3 0  9994",
        "tle_line2": "2 55973  97.5101 140.7325 0004562  85.0581 275.1186 15.40547491150769"
      },
      "geometry": {
        "type": "Point",
        "coordinates": [
          137.68696875067772,
          23.680059414621116
        ]
      }
    },
    {
      "type": "Feature",
      "properties": {
        "norad_id": 55974,
        "name": "TIANMU-1 04",
        "group": "weather",
        "lat": 51.03990766979899,
        "lon": -30.42072175438323,
        "alt_km": 436.4262374218997,
        "timestamp": "2025-12-04T13:52:00.091748+00:00",
        "meta_object_name": "TIANMU-1 04",
        "meta_object_id": "2023-039B",
        "meta_epoch": "2025-12-04T08:38:12.056928",
        "meta_mean_motion": 15.40880717,
        "meta_eccentricity": 0.00052346,
        "meta_inclination": 97.5035,
        "meta_ra_of_asc_node": 139.9744,
        "meta_arg_of_pericenter": 81.0808,
        "meta_mean_anomaly": 279.103,
        "meta_ephemeris_type": 0,
        "meta_classification_type": "U",
        "meta_norad_cat_id": 55974,
        "meta_element_set_no": 999,
        "meta_rev_at_epoch": 15077,
        "meta_bstar": 0.00078396831,
        "meta_mean_motion_dot": 0.0003222,
        "meta_mean_motion_ddot": 0,
        "tle_line1": "1 55974U 23039B   25338.35986177  .00032220  00000+0  78397-3 0  9999",
        "tle_line2": "2 55974  97.5035 139.9744 0005234  81.0808 279.1030 15.40880717150770"
      },
      "geometry": {
        "type": "Point",
        "coordinates": [
          -30.42072175438323,
          51.03990766979899
        ]
      }
    },
    {
      "type": "Feature",
      "properties": {
        "norad_id": 55975,
        "name": "TIANMU-1 05",
        "group": "weather",
        "lat": 8.609940216566327,
        "lon": -38.16570168624868,
        "alt_km": 445.4997967669333,
        "timestamp": "2025-12-04T13:52:00.091761+00:00",
        "meta_object_name": "TIANMU-1 05",
        "meta_object_id": "2023-039C",
        "meta_epoch": "2025-12-04T08:26:58.259616",
        "meta_mean_motion": 15.40508195,
        "meta_eccentricity": 0.00043162,
        "meta_inclination": 97.5081,
        "meta_ra_of_asc_node": 140.4583,
        "meta_arg_of_pericenter": 101.5919,
        "meta_mean_anomaly": 258.5811,
        "meta_ephemeris_type": 0,
        "meta_classification_type": "U",
        "meta_norad_cat_id": 55975,
        "meta_element_set_no": 999,
        "meta_rev_at_epoch": 15075,
        "meta_bstar": 0.00078864759,
        "meta_mean_motion_dot": 0.00032011,
        "meta_mean_motion_ddot": 0,
        "tle_line1": "1 55975U 23039C   25338.35206319  .00032011  00000+0  78865-3 0  9991",
        "tle_line2": "2 55975  97.5081 140.4583 0004316 101.5919 258.5811 15.40508195150754"
      },
      "geometry": {
        "type": "Point",
        "coordinates": [
          -38.16570168624868,
          8.609940216566327
        ]
      }
    },
    {
      "type": "Feature",
      "properties": {
        "norad_id": 55976,
        "name": "TIANMU-1 06",
        "group": "weather",
        "lat": 64.25831345871991,
        "lon": -22.974225723728175,
        "alt_km": 434.041001028173,
        "timestamp": "2025-12-04T13:52:00.091771+00:00",
        "meta_object_name": "TIANMU-1 06",
        "meta_object_id": "2023-039D",
        "meta_epoch": "2025-12-04T08:41:44.555136",
        "meta_mean_motion": 15.40933727,
        "meta_eccentricity": 0.00046794,
        "meta_inclination": 97.5092,
        "meta_ra_of_asc_node": 140.9271,
        "meta_arg_of_pericenter": 97.1856,
        "meta_mean_anomaly": 262.9922,
        "meta_ephemeris_type": 0,
        "meta_classification_type": "U",
        "meta_norad_cat_id": 55976,
        "meta_element_set_no": 999,
        "meta_rev_at_epoch": 15077,
        "meta_bstar": 0.0007816242,
        "meta_mean_motion_dot": 0.00032176,
        "meta_mean_motion_ddot": 0,
        "tle_line1": "1 55976U 23039D   25338.36232124  .00032176  00000+0  78162-3 0  9998",
        "tle_line2": "2 55976  97.5092 140.9271 0004679  97.1856 262.9922 15.40933727150775"
      },
      "geometry": {
        "type": "Point",
        "coordinates": [
          -22.974225723728175,
          64.25831345871991
        ]
      }
    },
    {
      "type": "Feature",
      "properties": {
        "norad_id": 56232,
        "name": "FENGYUN 3G",
        "group": "weather",
        "lat": 34.36948179458293,
        "lon": 54.491969317412774,
        "alt_km": 397.7999485344226,
        "timestamp": "2025-12-04T13:52:00.091781+00:00",
        "meta_object_name": "FENGYUN 3G",
        "meta_object_id": "2023-055A",
        "meta_epoch": "2025-12-04T08:39:59.795136",
        "meta_mean_motion": 15.5288598,
        "meta_eccentricity": 0.00092032,
        "meta_inclination": 49.9947,
        "meta_ra_of_asc_node": 270.6675,
        "meta_arg_of_pericenter": 108.2747,
        "meta_mean_anomaly": 251.9222,
        "meta_ephemeris_type": 0,
        "meta_classification_type": "U",
        "meta_norad_cat_id": 56232,
        "meta_element_set_no": 999,
        "meta_rev_at_epoch": 14972,
        "meta_bstar": 0.00097235273,
        "meta_mean_motion_dot": 0.00061724,
        "meta_mean_motion_ddot": 0,
        "tle_line1": "1 56232U 23055A   25338.36110874  .00061724  00000+0  97235-3 0  9992",
        "tle_line2": "2 56232  49.9947 270.6675 0009203 108.2747 251.9222 15.52885980149725"
      },
      "geometry": {
        "type": "Point",
        "coordinates": [
          54.491969317412774,
          34.36948179458293
        ]
      }
    },
    {
      "type": "Feature",
      "properties": {
        "norad_id": 57166,
        "name": "METEOR-M2 3",
        "group": "weather",
        "lat": -8.793261051866658,
        "lon": -149.0882660520442,
        "alt_km": 818.6735669873215,
        "timestamp": "2025-12-04T13:52:00.091795+00:00",
        "meta_object_name": "METEOR-M2 3",
        "meta_object_id": "2023-091A",
        "meta_epoch": "2025-12-04T07:55:27.197760",
        "meta_mean_motion": 14.24024587,
        "meta_eccentricity": 0.00043576,
        "meta_inclination": 98.639,
        "meta_ra_of_asc_node": 32.016,
        "meta_arg_of_pericenter": 31.4823,
        "meta_mean_anomaly": 328.6616,
        "meta_ephemeris_type": 0,
        "meta_classification_type": "U",
        "meta_norad_cat_id": 57166,
        "meta_element_set_no": 999,
        "meta_rev_at_epoch": 12678,
        "meta_bstar": 5.4004761e-05,
        "meta_mean_motion_dot": 8.1e-07,
        "meta_mean_motion_ddot": 0,
        "tle_line1": "1 57166U 23091A   25338.33017590  .00000081  00000+0  54005-4 0  9995",
        "tle_line2": "2 57166  98.6390  32.0160 0004357  31.4823 328.6616 14.24024587126787"
      },
      "geometry": {
        "type": "Point",
        "coordinates": [
          -149.0882660520442,
          -8.793261051866658
        ]
      }
    },
    {
      "type": "Feature",
      "properties": {
        "norad_id": 57399,
        "name": "TIANMU-1 07",
        "group": "weather",
        "lat": -26.438664337487857,
        "lon": -155.04028535754497,
        "alt_km": 488.879136921837,
        "timestamp": "2025-12-04T13:52:00.091808+00:00",
        "meta_object_name": "TIANMU-1 07",
        "meta_object_id": "2023-101A",
        "meta_epoch": "2025-12-04T08:15:01.803168",
        "meta_mean_motion": 15.27883646,
        "meta_eccentricity": 0.00056297,
        "meta_inclination": 97.2892,
        "meta_ra_of_asc_node": 28.3801,
        "meta_arg_of_pericenter": 102.9375,
        "meta_mean_anomaly": 257.2494,
        "meta_ephemeris_type": 0,
        "meta_classification_type": "U",
        "meta_norad_cat_id": 57399,
        "meta_element_set_no": 999,
        "meta_rev_at_epoch": 13187,
        "meta_bstar": 0.00060473243,
        "meta_mean_motion_dot": 0.00016414,
        "meta_mean_motion_ddot": 0,
        "tle_line1": "1 57399U 23101A   25338.34377087  .00016414  00000+0  60473-3 0  9998",
        "tle_line2": "2 57399  97.2892  28.3801 0005629 102.9375 257.2494 15.27883646131876"
      },
      "geometry": {
        "type": "Point",
        "coordinates": [
          -155.04028535754497,
          -26.438664337487857
        ]
      }
    }
  ]
}